[{"OBJECT_NAME":"STARLINK-35087","OBJECT_ID":"2025-200X","EPOCH":"2026-03-09T16:54:42.668064","MEAN_MOTION":15.05647932,"ECCENTRICITY":2.221e-5,"INCLINATION":97.6018,"RA_OF_ASC_NODE":139.8223,"ARG_OF_PERICENTER":248.52,"MEAN_ANOMALY":111.6003,"EPHEMERIS_TYPE":0,"CLASSIFICATION_TYPE":"U","NORAD_CAT_ID":65541,"ELEMENT_SET_NO":999,"REV_AT_EPOCH":2913,"BSTAR":0.00034650721,"MEAN_MOTION_DOT":4.942e-5,"MEAN_MOTION_DDOT":0},{"OBJECT_NAME":"PSLV R\/B","OBJECT_ID":"2018-071C","EPOCH":"2026-03-09T22:40:07.416192","MEAN_MOTION":15.00058604,"ECCENTRICITY":0.00237177,"INCLINATION":97.444,"RA_OF_ASC_NODE":249.6196,"ARG_OF_PERICENTER":104.8167,"MEAN_ANOMALY":255.5687,"EPHEMERIS_TYPE":0,"CLASSIFICATION_TYPE":"U","NORAD_CAT_ID":43620,"ELEMENT_SET_NO":999,"REV_AT_EPOCH":40754,"BSTAR":0.00020356401,"MEAN_MOTION_DOT":2.493e-5,"MEAN_MOTION_DDOT":0}]
